[{"OBJECT_NAME":"YAOGAN-43 01D","OBJECT_ID":"2024-148D","EPOCH":"2026-03-09T10:27:16.254720","MEAN_MOTION":15.28369377,"ECCENTRICITY":0.00025569,"INCLINATION":35.001,"RA_OF_ASC_NODE":61.7102,"ARG_OF_PERICENTER":326.2473,"MEAN_ANOMALY":33.808,"EPHEMERIS_TYPE":0,"CLASSIFICATION_TYPE":"U","NORAD_CAT_ID":60461,"ELEMENT_SET_NO":999,"REV_AT_EPOCH":8700,"BSTAR":0.00037765912,"MEAN_MOTION_DOT":0.00010676,"MEAN_MOTION_DDOT":0},{"OBJECT_NAME":"STARLINK-35510","OBJECT_ID":"2025-257T","EPOCH":"2026-03-09T17:29:00.309984","MEAN_MOTION":15.30208609,"ECCENTRICITY":7.038e-5,"INCLINATION":53.1604,"RA_OF_ASC_NODE":216.5401,"ARG_OF_PERICENTER":70.6158,"MEAN_ANOMALY":289.4918,"EPHEMERIS_TYPE":0,"CLASSIFICATION_TYPE":"U","NORAD_CAT_ID":66397,"ELEMENT_SET_NO":999,"REV_AT_EPOCH":1974,"BSTAR":0.0011929486,"MEAN_MOTION_DOT":0.00035149,"MEAN_MOTION_DDOT":0}]
